{
  "links" : {
    "next" : "https://api.nasa.gov/neo/rest/v1/feed?start_date=1999-03-09&end_date=1999-03-09&detailed=true&api_key=t0TVs3DtDT2H8Oy2Zy8m2eVrNsAVKAexjcZXUckd",
    "prev" : "https://api.nasa.gov/neo/rest/v1/feed?start_date=1999-03-07&end_date=1999-03-07&detailed=true&api_key=t0TVs3DtDT2H8Oy2Zy8m2eVrNsAVKAexjcZXUckd",
    "self" : "https://api.nasa.gov/neo/rest/v1/feed?start_date=1999-03-08&end_date=1999-03-08&detailed=true&api_key=t0TVs3DtDT2H8Oy2Zy8m2eVrNsAVKAexjcZXUckd"
  },
  "element_count" : 7,
  "near_earth_objects" : {
    "1999-03-08" : [ {
      "links" : {
        "self" : "https://api.nasa.gov/neo/rest/v1/neo/3600563?api_key=t0TVs3DtDT2H8Oy2Zy8m2eVrNsAVKAexjcZXUckd"
      },
      "neo_reference_id" : "3600563",
      "name" : "(2012 EO3)",
      "nasa_jpl_url" : "http://ssd.jpl.nasa.gov/sbdb.cgi?sstr=3600563",
      "absolute_magnitude_h" : 23.0,
      "estimated_diameter" : {
        "kilometers" : {
          "estimated_diameter_min" : 0.0667659413,
          "estimated_diameter_max" : 0.1492931834
        },
        "meters" : {
          "estimated_diameter_min" : 66.7659413495,
          "estimated_diameter_max" : 149.2931834393
        },
        "miles" : {
          "estimated_diameter_min" : 0.0414864197,
          "estimated_diameter_max" : 0.0927664547
        },
        "feet" : {
          "estimated_diameter_min" : 219.0483710172,
          "estimated_diameter_max" : 489.807047955
        }
      },
      "is_potentially_hazardous_asteroid" : false,
      "close_approach_data" : [ {
        "close_approach_date" : "1999-03-08",
        "epoch_date_close_approach" : 920880000000,
        "relative_velocity" : {
          "kilometers_per_second" : "24.1354236895",
          "kilometers_per_hour" : "86887.5252820574",
          "miles_per_hour" : "53988.529250954"
        },
        "miss_distance" : {
          "astronomical" : "0.4360666492",
          "lunar" : "169.6299285889",
          "kilometers" : "65234644",
          "miles" : "40534928"
        },
        "orbiting_body" : "Earth"
      } ],
      "orbital_data" : {
        "orbit_id" : "10",
        "orbit_determination_date" : "2017-04-06 08:50:37",
        "orbit_uncertainty" : "6",
        "minimum_orbit_intersection" : ".0614593",
        "jupiter_tisserand_invariant" : "7.297",
        "epoch_osculation" : "2458000.5",
        "eccentricity" : ".3563717537975913",
        "semi_major_axis" : ".7804257112751907",
        "inclination" : "29.51764056324188",
        "ascending_node_longitude" : "345.5102906537396",
        "orbital_period" : "251.8232242533907",
        "perihelion_distance" : ".5023040318393184",
        "perihelion_argument" : "352.2323639671159",
        "aphelion_distance" : "1.058547390711063",
        "perihelion_time" : "2458124.678750476154",
        "mean_anomaly" : "182.4772544154511",
        "mean_motion" : "1.429574262133024",
        "equinox" : "J2000"
      }
    }, {
      "links" : {
        "self" : "https://api.nasa.gov/neo/rest/v1/neo/3710219?api_key=t0TVs3DtDT2H8Oy2Zy8m2eVrNsAVKAexjcZXUckd"
      },
      "neo_reference_id" : "3710219",
      "name" : "(2015 CH13)",
      "nasa_jpl_url" : "http://ssd.jpl.nasa.gov/sbdb.cgi?sstr=3710219",
      "absolute_magnitude_h" : 28.6,
      "estimated_diameter" : {
        "kilometers" : {
          "estimated_diameter_min" : 0.0050647146,
          "estimated_diameter_max" : 0.0113250461
        },
        "meters" : {
          "estimated_diameter_min" : 5.0647145883,
          "estimated_diameter_max" : 11.3250461062
        },
        "miles" : {
          "estimated_diameter_min" : 0.0031470668,
          "estimated_diameter_max" : 0.0070370552
        },
        "feet" : {
          "estimated_diameter_min" : 16.61651821,
          "estimated_diameter_max" : 37.155664267
        }
      },
      "is_potentially_hazardous_asteroid" : false,
      "close_approach_data" : [ {
        "close_approach_date" : "1999-03-08",
        "epoch_date_close_approach" : 920880000000,
        "relative_velocity" : {
          "kilometers_per_second" : "29.3862237483",
          "kilometers_per_hour" : "105790.4054937274",
          "miles_per_hour" : "65734.0439024774"
        },
        "miss_distance" : {
          "astronomical" : "0.4732407949",
          "lunar" : "184.0906677246",
          "kilometers" : "70795816",
          "miles" : "43990480"
        },
        "orbiting_body" : "Earth"
      } ],
      "orbital_data" : {
        "orbit_id" : "3",
        "orbit_determination_date" : "2017-04-06 08:35:42",
        "orbit_uncertainty" : "8",
        "minimum_orbit_intersection" : ".0006796",
        "jupiter_tisserand_invariant" : "4.143",
        "epoch_osculation" : "2457066.5",
        "eccentricity" : ".5577625415647331",
        "semi_major_axis" : "1.616717459778496",
        "inclination" : "2.847650485672508",
        "ascending_node_longitude" : "141.0848235975342",
        "orbital_period" : "750.8438357160981",
        "perihelion_distance" : ".7149730204203628",
        "perihelion_argument" : "284.1027130454697",
        "aphelion_distance" : "2.518461899136629",
        "perihelion_time" : "2457017.138196911542",
        "mean_anomaly" : "23.66703736056774",
        "mean_motion" : ".4794605520822572",
        "equinox" : "J2000"
      }
    }, {
      "links" : {
        "self" : "https://api.nasa.gov/neo/rest/v1/neo/3763098?api_key=t0TVs3DtDT2H8Oy2Zy8m2eVrNsAVKAexjcZXUckd"
      },
      "neo_reference_id" : "3763098",
      "name" : "(2016 VG)",
      "nasa_jpl_url" : "http://ssd.jpl.nasa.gov/sbdb.cgi?sstr=3763098",
      "absolute_magnitude_h" : 26.7,
      "estimated_diameter" : {
        "kilometers" : {
          "estimated_diameter_min" : 0.0121494041,
          "estimated_diameter_max" : 0.0271668934
        },
        "meters" : {
          "estimated_diameter_min" : 12.14940408,
          "estimated_diameter_max" : 27.1668934089
        },
        "miles" : {
          "estimated_diameter_min" : 0.0075492874,
          "estimated_diameter_max" : 0.0168807197
        },
        "feet" : {
          "estimated_diameter_min" : 39.8602508817,
          "estimated_diameter_max" : 89.1302305717
        }
      },
      "is_potentially_hazardous_asteroid" : false,
      "close_approach_data" : [ {
        "close_approach_date" : "1999-03-08",
        "epoch_date_close_approach" : 920880000000,
        "relative_velocity" : {
          "kilometers_per_second" : "15.4003065467",
          "kilometers_per_hour" : "55441.1035680865",
          "miles_per_hour" : "34448.9457142924"
        },
        "miss_distance" : {
          "astronomical" : "0.4171904829",
          "lunar" : "162.2870941162",
          "kilometers" : "62410808",
          "miles" : "38780280"
        },
        "orbiting_body" : "Earth"
      } ],
      "orbital_data" : {
        "orbit_id" : "4",
        "orbit_determination_date" : "2017-04-06 08:22:33",
        "orbit_uncertainty" : "4",
        "minimum_orbit_intersection" : ".00356576",
        "jupiter_tisserand_invariant" : "6.549",
        "epoch_osculation" : "2458000.5",
        "eccentricity" : ".3442589769598711",
        "semi_major_axis" : ".900519546611922",
        "inclination" : "9.466958333592531",
        "ascending_node_longitude" : "223.5404093118797",
        "orbital_period" : "312.1318905900077",
        "perihelion_distance" : ".5905076087629347",
        "perihelion_argument" : "306.6018940922859",
        "aphelion_distance" : "1.210531484460909",
        "perihelion_time" : "2458088.688789822440",
        "mean_anomaly" : "258.2867009325226",
        "mean_motion" : "1.153358598890711",
        "equinox" : "J2000"
      }
    } ]
  }
}